{
  "links" : {
    "next" : "https://api.nasa.gov/neo/rest/v1/feed?start_date=2012-01-09&end_date=2012-01-09&detailed=true&api_key=t0TVs3DtDT2H8Oy2Zy8m2eVrNsAVKAexjcZXUckd",
    "prev" : "https://api.nasa.gov/neo/rest/v1/feed?start_date=2012-01-07&end_date=2012-01-07&detailed=true&api_key=t0TVs3DtDT2H8Oy2Zy8m2eVrNsAVKAexjcZXUckd",
    "self" : "https://api.nasa.gov/neo/rest/v1/feed?start_date=2012-01-08&end_date=2012-01-08&detailed=true&api_key=t0TVs3DtDT2H8Oy2Zy8m2eVrNsAVKAexjcZXUckd"
  },
  "element_count" : 6,
  "near_earth_objects" : {
    "2012-01-08" : [ {
      "links" : {
        "self" : "https://api.nasa.gov/neo/rest/v1/neo/3624076?api_key=t0TVs3DtDT2H8Oy2Zy8m2eVrNsAVKAexjcZXUckd"
      },
      "neo_reference_id" : "3624076",
      "name" : "(2013 AH76)",
      "nasa_jpl_url" : "http://ssd.jpl.nasa.gov/sbdb.cgi?sstr=3624076",
      "absolute_magnitude_h" : 22.9,
      "estimated_diameter" : {
        "kilometers" : {
          "estimated_diameter_min" : 0.0699125232,
          "estimated_diameter_max" : 0.1563291544
        },
        "meters" : {
          "estimated_diameter_min" : 69.9125232246,
          "estimated_diameter_max" : 156.3291544087
        },
        "miles" : {
          "estimated_diameter_min" : 0.0434416145,
          "estimated_diameter_max" : 0.097138403
        },
        "feet" : {
          "estimated_diameter_min" : 229.3718026961,
          "estimated_diameter_max" : 512.8909429502
        }
      },
      "is_potentially_hazardous_asteroid" : false,
      "close_approach_data" : [ {
        "close_approach_date" : "2012-01-08",
        "epoch_date_close_approach" : 1326009600000,
        "relative_velocity" : {
          "kilometers_per_second" : "20.1220688574",
          "kilometers_per_hour" : "72439.4478864946",
          "miles_per_hour" : "45011.0558270277"
        },
        "miss_distance" : {
          "astronomical" : "0.117460233",
          "lunar" : "45.6920318604",
          "kilometers" : "17571802",
          "miles" : "10918611"
        },
        "orbiting_body" : "Earth"
      } ],
      "orbital_data" : {
        "orbit_id" : "5",
        "orbit_determination_date" : "2017-04-06 08:47:14",
        "orbit_uncertainty" : "8",
        "minimum_orbit_intersection" : ".0599369",
        "jupiter_tisserand_invariant" : "6.009",
        "epoch_osculation" : "2456308.5",
        "eccentricity" : ".5464186902169199",
        "semi_major_axis" : ".9849291964124608",
        "inclination" : "4.545120189922559",
        "ascending_node_longitude" : "347.1992682318928",
        "orbital_period" : "357.0310146326894",
        "perihelion_distance" : ".4467454749523605",
        "perihelion_argument" : "353.7628281782291",
        "aphelion_distance" : "1.523112917872561",
        "perihelion_time" : "2456236.326768349472",
        "mean_anomaly" : "72.77340715321473",
        "mean_motion" : "1.008315763184789",
        "equinox" : "J2000"
      }
    }, {
      "links" : {
        "self" : "https://api.nasa.gov/neo/rest/v1/neo/3759721?api_key=t0TVs3DtDT2H8Oy2Zy8m2eVrNsAVKAexjcZXUckd"
      },
      "neo_reference_id" : "3759721",
      "name" : "(2016 SX1)",
      "nasa_jpl_url" : "http://ssd.jpl.nasa.gov/sbdb.cgi?sstr=3759721",
      "absolute_magnitude_h" : 28.6,
      "estimated_diameter" : {
        "kilometers" : {
          "estimated_diameter_min" : 0.0050647146,
          "estimated_diameter_max" : 0.0113250461
        },
        "meters" : {
          "estimated_diameter_min" : 5.0647145883,
          "estimated_diameter_max" : 11.3250461062
        },
        "miles" : {
          "estimated_diameter_min" : 0.0031470668,
          "estimated_diameter_max" : 0.0070370552
        },
        "feet" : {
          "estimated_diameter_min" : 16.61651821,
          "estimated_diameter_max" : 37.155664267
        }
      },
      "is_potentially_hazardous_asteroid" : false,
      "close_approach_data" : [ {
        "close_approach_date" : "2012-01-08",
        "epoch_date_close_approach" : 1326009600000,
        "relative_velocity" : {
          "kilometers_per_second" : "3.1137453238",
          "kilometers_per_hour" : "11209.483165634",
          "miles_per_hour" : "6965.1369147797"
        },
        "miss_distance" : {
          "astronomical" : "0.1630240571",
          "lunar" : "63.4163551331",
          "kilometers" : "24388052",
          "miles" : "15154033"
        },
        "orbiting_body" : "Earth"
      } ],
      "orbital_data" : {
        "orbit_id" : "12",
        "orbit_determination_date" : "2017-07-04 06:19:29",
        "orbit_uncertainty" : "5",
        "minimum_orbit_intersection" : ".00484538",
        "jupiter_tisserand_invariant" : "6.731",
        "epoch_osculation" : "2458000.5",
        "eccentricity" : ".1466612718298055",
        "semi_major_axis" : ".879211302491648",
        "inclination" : "2.618453762279199",
        "ascending_node_longitude" : "1.188596583985156",
        "orbital_period" : "301.1191116435515",
        "perihelion_distance" : ".7502650546610831",
        "perihelion_argument" : "178.4582405107791",
        "aphelion_distance" : "1.008157550322213",
        "perihelion_time" : "2458105.252192902733",
        "mean_anomaly" : "234.7645433757001",
        "mean_motion" : "1.195540190176134",
        "equinox" : "J2000"
      }
    }, {
      "links" : {
        "self" : "https://api.nasa.gov/neo/rest/v1/neo/3768654?api_key=t0TVs3DtDT2H8Oy2Zy8m2eVrNsAVKAexjcZXUckd"
      },
      "neo_reference_id" : "3768654",
      "name" : "(2017 CX1)",
      "nasa_jpl_url" : "http://ssd.jpl.nasa.gov/sbdb.cgi?sstr=3768654",
      "absolute_magnitude_h" : 28.2,
      "estimated_diameter" : {
        "kilometers" : {
          "estimated_diameter_min" : 0.0060891262,
          "estimated_diameter_max" : 0.0136157002
        },
        "meters" : {
          "estimated_diameter_min" : 6.0891262211,
          "estimated_diameter_max" : 13.6157001539
        },
        "miles" : {
          "estimated_diameter_min" : 0.0037836064,
          "estimated_diameter_max" : 0.0084604012
        },
        "feet" : {
          "estimated_diameter_min" : 19.9774488711,
          "estimated_diameter_max" : 44.6709336928
        }
      },
      "is_potentially_hazardous_asteroid" : false,
      "close_approach_data" : [ {
        "close_approach_date" : "2012-01-08",
        "epoch_date_close_approach" : 1326009600000,
        "relative_velocity" : {
          "kilometers_per_second" : "5.7108628022",
          "kilometers_per_hour" : "20559.1060878321",
          "miles_per_hour" : "12774.6290021866"
        },
        "miss_distance" : {
          "astronomical" : "0.065490704",
          "lunar" : "25.4758815765",
          "kilometers" : "9797269",
          "miles" : "6087741"
        },
        "orbiting_body" : "Earth"
      } ],
      "orbital_data" : {
        "orbit_id" : "3",
        "orbit_determination_date" : "2017-04-06 08:20:14",
        "orbit_uncertainty" : "6",
        "minimum_orbit_intersection" : ".0106838",
        "jupiter_tisserand_invariant" : "4.690",
        "epoch_osculation" : "2458000.5",
        "eccentricity" : ".2934665401340402",
        "semi_major_axis" : "1.407315024830059",
        "inclination" : "3.39013294164014",
        "ascending_node_longitude" : "138.034153483572",
        "orbital_period" : "609.7971824008782",
        "perihelion_distance" : ".9943151536145304",
        "perihelion_argument" : "353.8218848077",
        "aphelion_distance" : "1.820314896045587",
        "perihelion_time" : "2457785.628780529227",
        "mean_anomaly" : "126.8514208362256",
        "mean_motion" : ".5903602220374601",
        "equinox" : "J2000"
      }
    } ]
  }
}